[{"OBJECT_NAME":"STARLINK-4130","OBJECT_ID":"2022-086X","EPOCH":"2026-03-09T15:58:17.077152","MEAN_MOTION":15.08813544,"ECCENTRICITY":0.00014897,"INCLINATION":53.2186,"RA_OF_ASC_NODE":194.2295,"ARG_OF_PERICENTER":78.5274,"MEAN_ANOMALY":281.5885,"EPHEMERIS_TYPE":0,"CLASSIFICATION_TYPE":"U","NORAD_CAT_ID":53263,"ELEMENT_SET_NO":999,"REV_AT_EPOCH":20106,"BSTAR":0.00039432976,"MEAN_MOTION_DOT":5.989e-5,"MEAN_MOTION_DDOT":0},{"OBJECT_NAME":"ASTRO-H (HITOMI)","OBJECT_ID":"2016-012A","EPOCH":"2026-03-09T04:06:47.322720","MEAN_MOTION":15.10001629,"ECCENTRICITY":0.0009877,"INCLINATION":31.0008,"RA_OF_ASC_NODE":359.8923,"ARG_OF_PERICENTER":325.8962,"MEAN_ANOMALY":34.1041,"EPHEMERIS_TYPE":0,"CLASSIFICATION_TYPE":"U","NORAD_CAT_ID":41337,"ELEMENT_SET_NO":999,"REV_AT_EPOCH":55215,"BSTAR":0.00025536822,"MEAN_MOTION_DOT":4.351e-5,"MEAN_MOTION_DDOT":0}]
